STARLINK-36332          
1 67862U 26034N   26064.00002314  .00052732  00000+0  26944-3 0  9998
2 67862  53.1585 234.7546 0001070  75.3785  32.1074 15.80843503  3100
STARLINK-36835          
1 67863U 26034P   26064.00002314  .00101876  00000+0  51458-3 0  9991
2 67863  53.1588 234.7446 0001168  71.2935  40.4503 15.80832226  3102
STARLINK-36831          
1 67864U 26034Q   26064.16932948  .00332200  00000+0  16156-2 0  9996
2 67864  53.1585 233.8864 0001628  49.9378 310.1788 15.80968154  3223
STARLINK-36738          
1 67865U 26034R   26064.00002314  .00030762  00000+0  15883-3 0  9990
2 67865  53.1587 234.7274 0000438  90.8552  29.4133 15.80874076  3108
STARLINK-36780          
1 67866U 26034S   26064.16668981  .00070108  00000+0  35631-3 0  9997
2 67866  53.1592 233.8808 0001327  66.7963 286.8348 15.80845311  3134
STARLINK-36761          
1 67867U 26034T   26064.16668981 -.00046421  00000+0 -23258-3 0  9993
2 67867  53.1593 233.8722 0000607 110.0249 247.8575 15.80904910  3131
STARLINK-36762          
1 67868U 26034U   26064.16668981  .00038256  00000+0  19662-3 0  9993
2 67868  53.1590 233.8636 0001130 120.0425 242.1269 15.80860441  3130
STARLINK-36779          
1 67869U 26034V   26064.16668981  .00048300  00000+0  24718-3 0  9993
2 67869  53.1591 233.8543 0001203  82.4949 283.9542 15.80846944  3131
STARLINK-36770          
1 67870U 26034W   26064.16668981  .00050969  00000+0  26059-3 0  9999
2 67870  53.1593 233.8365 0000126 152.2373 222.7587 15.80843958  3139
STARLINK-36769          
1 67871U 26034X   26064.16668981  .00062292  00000+0  31721-3 0  9994
2 67871  53.1592 233.8455 0000938  74.8000 295.9177 15.80849858  3138
STARLINK-36786          
1 67872U 26034Y   26064.16668981  .00016979  00000+0  89438-4 0  9995
2 67872  53.1592 233.8278 0001074  75.0123 304.2506 15.80861895  3138
STARLINK-36783          
1 67873U 26034Z   26064.16668981  .00036488  00000+0  18773-3 0  9996
2 67873  53.1594 233.8182 0001044 136.4098 247.1181 15.80861079  3133
